[{"OBJECT_NAME":"OBJECT B","OBJECT_ID":"2025-180B","EPOCH":"2026-03-02T07:51:01.178208","MEAN_MOTION":15.14359033,"ECCENTRICITY":0.0014719,"INCLINATION":97.5099,"RA_OF_ASC_NODE":189.7404,"ARG_OF_PERICENTER":334.9723,"MEAN_ANOMALY":25.0794,"EPHEMERIS_TYPE":0,"CLASSIFICATION_TYPE":"U","NORAD_CAT_ID":65260,"ELEMENT_SET_NO":999,"REV_AT_EPOCH":2948,"BSTAR":0.00032386063,"MEAN_MOTION_DOT":5.888e-5,"MEAN_MOTION_DDOT":0},{"OBJECT_NAME":"ARIANE 44L+3 R\/B","OBJECT_ID":"1996-002C","EPOCH":"2026-03-08T10:37:44.890752","MEAN_MOTION":3.56707443,"ECCENTRICITY":0.62877204,"INCLINATION":7.8237,"RA_OF_ASC_NODE":148.7147,"ARG_OF_PERICENTER":249.0607,"MEAN_ANOMALY":35.8052,"EPHEMERIS_TYPE":0,"CLASSIFICATION_TYPE":"U","NORAD_CAT_ID":23766,"ELEMENT_SET_NO":999,"REV_AT_EPOCH":32492,"BSTAR":0.0030225743,"MEAN_MOTION_DOT":5.127e-5,"MEAN_MOTION_DDOT":0}]
